[{"OBJECT_NAME":"GEESAT-1 09","OBJECT_ID":"2022-058J","EPOCH":"2026-03-09T22:14:58.178400","MEAN_MOTION":14.996745,"ECCENTRICITY":0.0007116,"INCLINATION":49.9974,"RA_OF_ASC_NODE":293.7726,"ARG_OF_PERICENTER":137.6611,"MEAN_ANOMALY":222.4884,"EPHEMERIS_TYPE":0,"CLASSIFICATION_TYPE":"U","NORAD_CAT_ID":52793,"ELEMENT_SET_NO":999,"REV_AT_EPOCH":20534,"BSTAR":0.00045554765,"MEAN_MOTION_DOT":5.429e-5,"MEAN_MOTION_DDOT":0},{"OBJECT_NAME":"STARLINK-36068","OBJECT_ID":"2025-280AA","EPOCH":"2026-03-09T23:39:32.549760","MEAN_MOTION":14.98335041,"ECCENTRICITY":0.00024521,"INCLINATION":70.0027,"RA_OF_ASC_NODE":333.566,"ARG_OF_PERICENTER":259.1288,"MEAN_ANOMALY":100.9596,"EPHEMERIS_TYPE":0,"CLASSIFICATION_TYPE":"U","NORAD_CAT_ID":66845,"ELEMENT_SET_NO":999,"REV_AT_EPOCH":1612,"BSTAR":0.00043628706,"MEAN_MOTION_DOT":5.117e-5,"MEAN_MOTION_DDOT":0}]
